STARLINK-36551          
1 67493U 26012A   26047.83337963  .00005647  00000+0  21465-3 0  9993
2 67493  43.0002  72.5639 0001305 269.4280 242.4883 15.27569256  5725
STARLINK-36396          
1 67494U 26012B   26047.43599795  .00088495  00000+0  14937-2 0  9990
2 67494  43.0009  75.1217 0005955 238.1633 121.8648 15.50629814  4501
STARLINK-36550          
1 67495U 26012C   26047.83337963 -.01878152  00000+0 -60726-1 0  9998
2 67495  42.9998  72.5540 0001188 290.9497 228.1608 15.34854601  5723
STARLINK-36534          
1 67496U 26012D   26047.83337963 -.02200980  00000+0 -79032-1 0  9998
2 67496  43.0008  72.3918 0001540 260.5688 322.8678 15.31547584  5660
STARLINK-36555          
1 67497U 26012E   26047.83337963 -.02206756  00000+0 -80160-1 0  9990
2 67497  43.0013  72.4240 0001607 256.9051 313.5180 15.31190176  5726
STARLINK-36081          
1 67498U 26012F   26047.83337963 -.01874660  00000+0 -54806-1 0  9993
2 67498  43.0007  72.4575 0001113 282.2526 276.1952 15.37943315  5663
STARLINK-36558          
1 67499U 26012G   26047.83337963 -.01886346  00000+0 -53633-1 0  9995
2 67499  43.0006  72.4297 0000919 292.8142 277.1467 15.38811165  5725
STARLINK-36557          
1 67500U 26012H   26047.83337963 -.02464559  00000+0 -93222-1 0  9995
2 67500  43.0005  72.2208 0001199 250.0099  41.8638 15.29713769  5722
STARLINK-36433          
1 67501U 26012J   26047.83337963 -.03611392  00000+0 -13583+0 0  9996
2 67501  43.0002  72.1690 0001349 249.6807  62.6498 15.30777313  5724
STARLINK-36554          
1 67502U 26012K   26047.83337963 -.01868183  00000+0 -54723-1 0  9990
2 67502  43.0003  72.1946 0001051 259.0812  45.2786 15.37872290  5668
STARLINK-36552          
1 67503U 26012L   26047.83337963 -.02197514  00000+0 -80325-1 0  9992
2 67503  42.9996  72.0355 0001147 292.2537  74.4208 15.30979494  5727
STARLINK-36512          
1 67504U 26012M   26047.83337963 -.01815728  00000+0 -57841-1 0  9993
2 67504  42.9999  71.9959 0001322 264.7591 119.4960 15.35195753  5726
