CCSDS_OMM_VERS = 2.0
CREATION_DATE  = 
ORIGINATOR     = 

OBJECT_NAME    = STARLINK-36551
OBJECT_ID      = 2026-012A
CENTER_NAME    = EARTH
REF_FRAME      = TEME
TIME_SYSTEM    = UTC
MEAN_ELEMENT_THEORY = SGP/SGP4

EPOCH          = 2026-02-16T20:00:04.000032
MEAN_MOTION    = 15.27569256
ECCENTRICITY   = .0001305
INCLINATION    = 43.0002
RA_OF_ASC_NODE = 72.5639
ARG_OF_PERICENTER = 269.4280
MEAN_ANOMALY   = 242.4883

EPHEMERIS_TYPE = 0
CLASSIFICATION_TYPE = U
NORAD_CAT_ID   = 67493
ELEMENT_SET_NO = 999
REV_AT_EPOCH   = 572
BSTAR          = .21465E-3
MEAN_MOTION_DOT = .5647E-4
MEAN_MOTION_DDOT = 0

CCSDS_OMM_VERS = 2.0
CREATION_DATE  = 
ORIGINATOR     = 

OBJECT_NAME    = STARLINK-36396
OBJECT_ID      = 2026-012B
CENTER_NAME    = EARTH
REF_FRAME      = TEME
TIME_SYSTEM    = UTC
MEAN_ELEMENT_THEORY = SGP/SGP4

EPOCH          = 2026-02-16T10:27:50.222880
MEAN_MOTION    = 15.50629814
ECCENTRICITY   = .0005955
INCLINATION    = 43.0009
RA_OF_ASC_NODE = 75.1217
ARG_OF_PERICENTER = 238.1633
MEAN_ANOMALY   = 121.8648

EPHEMERIS_TYPE = 0
CLASSIFICATION_TYPE = U
NORAD_CAT_ID   = 67494
ELEMENT_SET_NO = 999
REV_AT_EPOCH   = 450
BSTAR          = .14937E-2
MEAN_MOTION_DOT = .88495E-3
MEAN_MOTION_DDOT = 0

CCSDS_OMM_VERS = 2.0
CREATION_DATE  = 
ORIGINATOR     = 

OBJECT_NAME    = STARLINK-36550
OBJECT_ID      = 2026-012C
CENTER_NAME    = EARTH
REF_FRAME      = TEME
TIME_SYSTEM    = UTC
MEAN_ELEMENT_THEORY = SGP/SGP4

EPOCH          = 2026-02-16T20:00:04.000032
MEAN_MOTION    = 15.34854601
ECCENTRICITY   = .0001188
INCLINATION    = 42.9998
RA_OF_ASC_NODE = 72.5540
ARG_OF_PERICENTER = 290.9497
MEAN_ANOMALY   = 228.1608

EPHEMERIS_TYPE = 0
CLASSIFICATION_TYPE = U
NORAD_CAT_ID   = 67495
ELEMENT_SET_NO = 999
REV_AT_EPOCH   = 572
BSTAR          = -.60726E-1
MEAN_MOTION_DOT = -.1878152E-1
MEAN_MOTION_DDOT = 0

CCSDS_OMM_VERS = 2.0
CREATION_DATE  = 
ORIGINATOR     = 

OBJECT_NAME    = STARLINK-36534
OBJECT_ID      = 2026-012D
CENTER_NAME    = EARTH
REF_FRAME      = TEME
TIME_SYSTEM    = UTC
MEAN_ELEMENT_THEORY = SGP/SGP4

EPOCH          = 2026-02-16T20:00:04.000032
MEAN_MOTION    = 15.31547584
ECCENTRICITY   = .000154
INCLINATION    = 43.0008
RA_OF_ASC_NODE = 72.3918
ARG_OF_PERICENTER = 260.5688
MEAN_ANOMALY   = 322.8678

EPHEMERIS_TYPE = 0
CLASSIFICATION_TYPE = U
NORAD_CAT_ID   = 67496
ELEMENT_SET_NO = 999
REV_AT_EPOCH   = 566
BSTAR          = -.79032E-1
MEAN_MOTION_DOT = -.220098E-1
MEAN_MOTION_DDOT = 0

CCSDS_OMM_VERS = 2.0
CREATION_DATE  = 
ORIGINATOR     = 

OBJECT_NAME    = STARLINK-36555
OBJECT_ID      = 2026-012E
CENTER_NAME    = EARTH
REF_FRAME      = TEME
TIME_SYSTEM    = UTC
MEAN_ELEMENT_THEORY = SGP/SGP4

EPOCH          = 2026-02-16T20:00:04.000032
MEAN_MOTION    = 15.31190176
ECCENTRICITY   = .0001607
INCLINATION    = 43.0013
RA_OF_ASC_NODE = 72.4240
ARG_OF_PERICENTER = 256.9051
MEAN_ANOMALY   = 313.5180

EPHEMERIS_TYPE = 0
CLASSIFICATION_TYPE = U
NORAD_CAT_ID   = 67497
ELEMENT_SET_NO = 999
REV_AT_EPOCH   = 572
BSTAR          = -.8016E-1
MEAN_MOTION_DOT = -.2206756E-1
MEAN_MOTION_DDOT = 0

CCSDS_OMM_VERS = 2.0
CREATION_DATE  = 
ORIGINATOR     = 

OBJECT_NAME    = STARLINK-36081
OBJECT_ID      = 2026-012F
CENTER_NAME    = EARTH
REF_FRAME      = TEME
TIME_SYSTEM    = UTC
MEAN_ELEMENT_THEORY = SGP/SGP4

EPOCH          = 2026-02-16T20:00:04.000032
MEAN_MOTION    = 15.37943315
ECCENTRICITY   = .0001113
INCLINATION    = 43.0007
RA_OF_ASC_NODE = 72.4575
ARG_OF_PERICENTER = 282.2526
MEAN_ANOMALY   = 276.1952

EPHEMERIS_TYPE = 0
CLASSIFICATION_TYPE = U
NORAD_CAT_ID   = 67498
ELEMENT_SET_NO = 999
REV_AT_EPOCH   = 566
BSTAR          = -.54806E-1
MEAN_MOTION_DOT = -.187466E-1
MEAN_MOTION_DDOT = 0

CCSDS_OMM_VERS = 2.0
CREATION_DATE  = 
ORIGINATOR     = 

OBJECT_NAME    = STARLINK-36558
OBJECT_ID      = 2026-012G
CENTER_NAME    = EARTH
REF_FRAME      = TEME
TIME_SYSTEM    = UTC
MEAN_ELEMENT_THEORY = SGP/SGP4

EPOCH          = 2026-02-16T20:00:04.000032
MEAN_MOTION    = 15.38811165
ECCENTRICITY   = .0000919
INCLINATION    = 43.0006
RA_OF_ASC_NODE = 72.4297
ARG_OF_PERICENTER = 292.8142
MEAN_ANOMALY   = 277.1467

EPHEMERIS_TYPE = 0
CLASSIFICATION_TYPE = U
NORAD_CAT_ID   = 67499
ELEMENT_SET_NO = 999
REV_AT_EPOCH   = 572
BSTAR          = -.53633E-1
MEAN_MOTION_DOT = -.1886346E-1
MEAN_MOTION_DDOT = 0

CCSDS_OMM_VERS = 2.0
CREATION_DATE  = 
ORIGINATOR     = 

OBJECT_NAME    = STARLINK-36557
OBJECT_ID      = 2026-012H
CENTER_NAME    = EARTH
REF_FRAME      = TEME
TIME_SYSTEM    = UTC
MEAN_ELEMENT_THEORY = SGP/SGP4

EPOCH          = 2026-02-16T20:00:04.000032
MEAN_MOTION    = 15.29713769
ECCENTRICITY   = .0001199
INCLINATION    = 43.0005
RA_OF_ASC_NODE = 72.2208
ARG_OF_PERICENTER = 250.0099
MEAN_ANOMALY   = 41.8638

EPHEMERIS_TYPE = 0
CLASSIFICATION_TYPE = U
NORAD_CAT_ID   = 67500
ELEMENT_SET_NO = 999
REV_AT_EPOCH   = 572
BSTAR          = -.93222E-1
MEAN_MOTION_DOT = -.2464559E-1
MEAN_MOTION_DDOT = 0

CCSDS_OMM_VERS = 2.0
CREATION_DATE  = 
ORIGINATOR     = 

OBJECT_NAME    = STARLINK-36433
OBJECT_ID      = 2026-012J
CENTER_NAME    = EARTH
REF_FRAME      = TEME
TIME_SYSTEM    = UTC
MEAN_ELEMENT_THEORY = SGP/SGP4

EPOCH          = 2026-02-16T20:00:04.000032
MEAN_MOTION    = 15.30777313
ECCENTRICITY   = .0001349
INCLINATION    = 43.0002
RA_OF_ASC_NODE = 72.1690
ARG_OF_PERICENTER = 249.6807
MEAN_ANOMALY   = 62.6498

EPHEMERIS_TYPE = 0
CLASSIFICATION_TYPE = U
NORAD_CAT_ID   = 67501
ELEMENT_SET_NO = 999
REV_AT_EPOCH   = 572
BSTAR          = -.13583E+0
MEAN_MOTION_DOT = -.3611392E-1
MEAN_MOTION_DDOT = 0

CCSDS_OMM_VERS = 2.0
CREATION_DATE  = 
ORIGINATOR     = 

OBJECT_NAME    = STARLINK-36554
OBJECT_ID      = 2026-012K
CENTER_NAME    = EARTH
REF_FRAME      = TEME
TIME_SYSTEM    = UTC
MEAN_ELEMENT_THEORY = SGP/SGP4

EPOCH          = 2026-02-16T20:00:04.000032
MEAN_MOTION    = 15.37872290
ECCENTRICITY   = .0001051
INCLINATION    = 43.0003
RA_OF_ASC_NODE = 72.1946
ARG_OF_PERICENTER = 259.0812
MEAN_ANOMALY   = 45.2786

EPHEMERIS_TYPE = 0
CLASSIFICATION_TYPE = U
NORAD_CAT_ID   = 67502
ELEMENT_SET_NO = 999
REV_AT_EPOCH   = 566
BSTAR          = -.54723E-1
MEAN_MOTION_DOT = -.1868183E-1
MEAN_MOTION_DDOT = 0

CCSDS_OMM_VERS = 2.0
CREATION_DATE  = 
ORIGINATOR     = 

OBJECT_NAME    = STARLINK-36552
OBJECT_ID      = 2026-012L
CENTER_NAME    = EARTH
REF_FRAME      = TEME
TIME_SYSTEM    = UTC
MEAN_ELEMENT_THEORY = SGP/SGP4

EPOCH          = 2026-02-16T20:00:04.000032
MEAN_MOTION    = 15.30979494
ECCENTRICITY   = .0001147
INCLINATION    = 42.9996
RA_OF_ASC_NODE = 72.0355
ARG_OF_PERICENTER = 292.2537
MEAN_ANOMALY   = 74.4208

EPHEMERIS_TYPE = 0
CLASSIFICATION_TYPE = U
NORAD_CAT_ID   = 67503
ELEMENT_SET_NO = 999
REV_AT_EPOCH   = 572
BSTAR          = -.80325E-1
MEAN_MOTION_DOT = -.2197514E-1
MEAN_MOTION_DDOT = 0

CCSDS_OMM_VERS = 2.0
CREATION_DATE  = 
ORIGINATOR     = 

OBJECT_NAME    = STARLINK-36512
OBJECT_ID      = 2026-012M
CENTER_NAME    = EARTH
REF_FRAME      = TEME
TIME_SYSTEM    = UTC
MEAN_ELEMENT_THEORY = SGP/SGP4

EPOCH          = 2026-02-16T20:00:04.000032
MEAN_MOTION    = 15.35195753
ECCENTRICITY   = .0001322
INCLINATION    = 42.9999
RA_OF_ASC_NODE = 71.9959
ARG_OF_PERICENTER = 264.7591
MEAN_ANOMALY   = 119.4960

EPHEMERIS_TYPE = 0
CLASSIFICATION_TYPE = U
NORAD_CAT_ID   = 67504
ELEMENT_SET_NO = 999
REV_AT_EPOCH   = 572
BSTAR          = -.57841E-1
MEAN_MOTION_DOT = -.1815728E-1
MEAN_MOTION_DDOT = 0

